OBJECT_NAME,OBJECT_ID,EPOCH,MEAN_MOTION,ECCENTRICITY,INCLINATION,RA_OF_ASC_NODE,ARG_OF_PERICENTER,MEAN_ANOMALY,EPHEMERIS_TYPE,CLASSIFICATION_TYPE,NORAD_CAT_ID,ELEMENT_SET_NO,REV_AT_EPOCH,BSTAR,MEAN_MOTION_DOT,MEAN_MOTION_DDOT
HAIYANG-2D,2021-043A,2026-06-28T20:37:55.095744,13.83371547,.00115278,65.9995,275.6387,267.5117,92.4632,0,U,48621,999,25816,-.43965917E-4,-.13E-5,0
2021-050D,2021-050D,2026-06-28T23:05:14.856000,15.23440316,.00046462,97.3342,255.7294,208.5617,151.5367,0,U,48843,999,28075,.16607705E-3,.3887E-4,0
TYVAK-0173,2021-059P,2026-06-28T22:43:25.339584,14.81926286,.00088066,96.0082,253.3805,2.3626,357.7632,0,U,48892,999,26998,.21038664E-3,.1635E-4,0
MANDRAKE 2 ABLE,2021-059AE,2026-06-28T22:46:01.489440,15.55441132,.00035153,97.7023,10.6334,314.1208,45.9755,0,U,48907,999,27895,.30388012E-3,.20623E-3,0
MANDRAKE 2 BAKER,2021-059AF,2026-06-28T18:44:55.766400,15.60150645,.0002158,97.6993,13.4062,308.2621,51.8441,0,U,48908,999,27910,.31312532E-3,.25361E-3,0
PACE-1,2021-059AG,2026-06-28T19:14:05.758656,15.81948067,.00023379,97.6744,19.2703,220.0399,140.0696,0,U,48909,999,27963,.46926907E-3,.95595E-3,0
YAM-3,2021-059AN,2026-06-28T22:56:47.093568,15.48808190,.00039003,97.6980,7.6826,324.7714,35.3277,0,U,48915,999,27881,.20586757E-3,.10968E-3,0
FARADAY_PHOENIX,2021-059AX,2026-06-28T19:20:23.888256,15.81802392,.00044264,97.6786,19.1552,249.5476,110.5317,0,U,48924,999,27949,.74924253E-3,.152756E-2,0
DEMO8 (TENZING),2021-059CA,2026-06-28T12:01:51.220128,15.55413930,.00053754,97.7014,13.7852,307.6299,52.4466,0,U,48951,999,27906,.29067861E-3,.19707E-3,0
NAPA-2,2021-059CN,2026-06-28T00:56:19.429728,16.12128839,.00055175,97.6528,19.8888,241.2413,118.8316,0,U,48963,999,27955,.74825025E-3,.795821E-2,.36885785E-3
FENGYUN 3E,2021-062A,2026-06-28T23:16:19.517376,14.19905139,.00027377,98.7490,183.2460,67.3478,292.7987,0,U,49008,999,25825,-.37628669E-4,-.124E-5,0
ISS (NAUKA),2021-066A,2026-06-28T16:05:22.337952,15.49468267,.00042679,51.6320,243.2491,243.5322,116.5229,0,U,49044,999,57168,.10963493E-3,.5693E-4,0
STARLINK-3100,2021-082Q,2026-06-28T22:09:54.792576,14.98331321,.00029926,69.9999,13.9868,268.3554,91.7262,0,U,49144,999,26264,.4468373E-4,.44E-5,0
CUTE,2021-088D,2026-06-28T17:31:30.296928,15.97827663,.00057636,97.4136,280.1790,209.4048,150.6905,0,U,49263,999,26439,.51766474E-3,.232087E-2,.23734074E-4
2021-091B,2021-091B,2026-06-28T23:40:45.623424,15.18611275,.00135244,97.4471,7.3818,6.9196,353.2222,0,U,49316,999,26077,.1431247E-3,.2899E-4,0
SDGSAT 1,2021-100A,2026-06-28T22:55:18.505056,15.19162185,.00080631,97.2627,226.4553,222.9728,137.0878,0,U,49387,999,25770,.87171036E-4,.1768E-4,0
TEIKYOSAT-4 (OORURI),2021-102B,2026-06-28T15:42:51.203520,15.09545802,.00104097,97.3666,208.6924,251.0207,108.9895,0,U,49396,999,25445,.9939679E-4,.1535E-4,0
Z-SAT,2021-102E,2026-06-28T22:17:55.980096,15.18345815,.00158566,97.3320,214.8954,200.2665,159.7942,0,U,49399,999,25522,.14016964E-3,.282E-4,0
HIBARI,2021-102F,2026-06-28T23:02:39.680736,15.31965880,.0012613,97.3234,225.7300,151.9750,208.2174,0,U,49400,999,25599,.34621908E-3,.10637E-3,0
KOSEN-1,2021-102H,2026-06-28T16:12:57.438720,15.26990664,.0014412,97.3182,221.6099,160.4878,199.6916,0,U,49402,999,25577,.26782336E-3,.7044E-4,0
GLOBAL-14,2021-106A,2026-06-28T11:38:05.866368,15.51119034,.00149691,42.0016,223.9138,103.8668,256.3842,0,U,49469,999,25988,.35306609E-3,.2096E-3,0
GAOFEN-3 02,2021-109A,2026-06-28T23:33:56.837376,14.42218124,.00020899,98.4085,187.9107,344.0045,16.1078,0,U,49495,999,24201,-.11782772E-4,-.82E-6,0
GLOBAL-12,2021-115BA,2026-06-28T23:19:44.136768,15.54313739,.00026435,53.1959,347.8469,75.7989,284.3316,0,U,49772,999,25773,.45793777E-3,.30116E-3,0
GLOBAL-13,2021-115BB,2026-06-28T22:45:21.503520,15.46495567,.0002625,53.1978,358.6625,134.9948,225.1274,0,U,49773,999,25758,.41119972E-3,.20355E-3,0
GLOBAL-17,2021-120A,2026-06-28T22:12:29.185056,15.52881940,.00152841,41.9955,339.3202,331.9624,28.0396,0,U,49949,999,25672,.4514299E-3,.28705E-3,0
GLOBAL-16,2021-120B,2026-06-28T21:22:06.220128,15.50735057,.00135152,41.9958,343.4807,322.3279,37.6618,0,U,49950,999,25666,.42696426E-3,.25059E-3,0
XW-3 (CAS-9),2021-131B,2026-06-28T23:52:19.609824,14.41367285,.00053171,98.4989,272.3204,69.4418,290.7341,0,U,50466,999,23681,.12757102E-3,.369E-5,0
ION SCV-004,2022-002K,2026-06-28T17:47:56.239296,15.30560470,.00059877,97.2833,237.1833,322.5842,37.4981,0,U,50993,999,24706,.16071622E-3,.4675E-4,0
ETV-A1,2022-002CE,2026-06-28T23:07:22.937952,15.40918692,.0003495,97.2879,246.2358,310.3502,49.7439,0,U,51060,999,24765,.24990226E-3,.10196E-3,0
BRO-5,2022-002CF,2026-06-28T22:53:17.813760,15.48004455,.00038371,97.2998,253.7308,268.6277,91.4534,0,U,51061,999,24807,.54792617E-3,.28617E-3,0
