HAIYANG-2D              
1 48621U 21043A   26179.85966546 -.00000130  00000+0 -43966-4 0  9992
2 48621  65.9995 275.6387 0011527 267.5117  92.4632 13.83371547258169
2021-050D               
1 48843U 21050D   26179.96197750  .00003887  00000+0  16608-3 0  9993
2 48843  97.3342 255.7294 0004646 208.5617 151.5367 15.23440316280759
TYVAK-0173              
1 48892U 21059P   26179.94682106  .00001635  00000+0  21039-3 0  9991
2 48892  96.0082 253.3805 0008806   2.3626 357.7632 14.81926286269989
MANDRAKE 2 ABLE         
1 48907U 21059AE  26179.94862835  .00020623  00000+0  30388-3 0  9992
2 48907  97.7023  10.6334 0003515 314.1208  45.9755 15.55441132278955
MANDRAKE 2 BAKER        
1 48908U 21059AF  26179.78120100  .00025361  00000+0  31313-3 0  9990
2 48908  97.6993  13.4062 0002158 308.2621  51.8441 15.60150645279103
PACE-1                  
1 48909U 21059AG  26179.80145554  .00095595  00000+0  46927-3 0  9997
2 48909  97.6744  19.2703 0002337 220.0399 140.0696 15.81948067279633
YAM-3                   
1 48915U 21059AN  26179.95610062  .00010968  00000+0  20587-3 0  9996
2 48915  97.6980   7.6826 0003900 324.7714  35.3277 15.48808190278814
FARADAY_PHOENIX         
1 48924U 21059AX  26179.80583204  .00152756  00000+0  74924-3 0  9993
2 48924  97.6786  19.1552 0004426 249.5476 110.5317 15.81802392279496
DEMO8 (TENZING)         
1 48951U 21059CA  26179.50128727  .00019707  00000+0  29068-3 0  9992
2 48951  97.7014  13.7852 0005375 307.6299  52.4466 15.55413930279066
NAPA-2                  
1 48963U 21059CN  26179.03911377  .00795821  36886-3  74825-3 0  9998
2 48963  97.6528  19.8888 0005517 241.2413 118.8316 16.12128839279553
FENGYUN 3E              
1 49008U 21062A   26179.96967034 -.00000124  00000+0 -37629-4 0  9990
2 49008  98.7490 183.2460 0002737  67.3478 292.7987 14.19905139258256
ISS (NAUKA)             
1 49044U 21066A   26179.67039743  .00005693  00000+0  10963-3 0  9994
2 49044  51.6320 243.2491 0004267 243.5322 116.5229 15.49468267571680
STARLINK-3100           
1 49144U 21082Q   26179.92355084  .00000440  00000+0  44684-4 0  9993
2 49144  69.9999  13.9868 0002992 268.3554  91.7262 14.98331321262647
CUTE                    
1 49263U 21088D   26179.73021177  .00232087  23734-4  51766-3 0  9999
2 49263  97.4136 280.1790 0005763 209.4048 150.6905 15.97827663264395
2021-091B               
1 49316U 21091B   26179.98663916  .00002899  00000+0  14312-3 0  9990
2 49316  97.4471   7.3818 0013524   6.9196 353.2222 15.18611275260778
SDGSAT 1                
1 49387U 21100A   26179.95507529  .00001768  00000+0  87171-4 0  9991
2 49387  97.2627 226.4553 0008063 222.9728 137.0878 15.19162185257706
TEIKYOSAT-4 (OORURI)    
1 49396U 21102B   26179.65475930  .00001535  00000+0  99397-4 0  9995
2 49396  97.3666 208.6924 0010409 251.0207 108.9895 15.09545802254451
Z-SAT                   
1 49399U 21102E   26179.92912014  .00002820  00000+0  14017-3 0  9990
2 49399  97.3320 214.8954 0015856 200.2665 159.7942 15.18345815255223
HIBARI                  
1 49400U 21102F   26179.96018149  .00010637  00000+0  34622-3 0  9992
2 49400  97.3234 225.7300 0012613 151.9750 208.2174 15.31965880255997
KOSEN-1                 
1 49402U 21102H   26179.67566480  .00007044  00000+0  26782-3 0  9994
2 49402  97.3182 221.6099 0014412 160.4878 199.6916 15.26990664255771
GLOBAL-14               
1 49469U 21106A   26179.48479012  .00020960  00000+0  35307-3 0  9999
2 49469  42.0016 223.9138 0014969 103.8668 256.3842 15.51119034259888
GAOFEN-3 02             
1 49495U 21109A   26179.98190784 -.00000082  00000+0 -11783-4 0  9990
2 49495  98.4085 187.9107 0002089 344.0045  16.1078 14.42218124242010
GLOBAL-12               
1 49772U 21115BA  26179.97203862  .00030116  00000+0  45794-3 0  9993
2 49772  53.1959 347.8469 0002643  75.7989 284.3316 15.54313739257736
GLOBAL-13               
1 49773U 21115BB  26179.94816555  .00020355  00000+0  41120-3 0  9993
2 49773  53.1978 358.6625 0002625 134.9948 225.1274 15.46495567257585
GLOBAL-17               
1 49949U 21120A   26179.92533779  .00028705  00000+0  45143-3 0  9992
2 49949  41.9955 339.3202 0015284 331.9624  28.0396 15.52881940256723
GLOBAL-16               
1 49950U 21120B   26179.89034977  .00025059  00000+0  42696-3 0  9995
2 49950  41.9958 343.4807 0013515 322.3279  37.6618 15.50735057256661
XW-3 (CAS-9)            
1 50466U 21131B   26179.99467141  .00000369  00000+0  12757-3 0  9997
2 50466  98.4989 272.3204 0005317  69.4418 290.7341 14.41367285236815
ION SCV-004             
1 50993U 22002K   26179.74162314  .00004675  00000+0  16072-3 0  9995
2 50993  97.2833 237.1833 0005987 322.5842  37.4981 15.30560470247064
ETV-A1                  
1 51060U 22002CE  26179.96345993  .00010196  00000+0  24990-3 0  9994
2 51060  97.2879 246.2358 0003495 310.3502  49.7439 15.40918692247656
BRO-5                   
1 51061U 22002CF  26179.95367840  .00028617  00000+0  54793-3 0  9990
2 51061  97.2998 253.7308 0003837 268.6277  91.4534 15.48004455248079
